KUIPER-00251            
1 67156U 25301Z   26005.46986917  .00027522  00000+0  80432-3 0  9996
2 67156  51.8678  10.7876 0009009 166.2506 193.8727 15.35050753  4202
KUIPER-00252            
1 67157U 25301AA  26005.47630112  .00026774  00000+0  79091-3 0  9998
2 67157  51.8669  10.8281 0009888 178.6131 181.4884 15.34719933  4017
KUIPER-00261            
1 67158U 25301AB  26005.52588765  .00033007  00000+0  93643-3 0  9997
2 67158  51.8706  10.4176 0006492 151.8938 208.2400 15.35904184  4023
KUIPER-00265            
1 67159U 25301AC  26005.50002314 -.01160145  00000+0 -39048-1 0  9991
2 67159  51.8759  10.4397 0001520  81.4109 191.7558 15.33268313  4049
