<?xml version="1.0" encoding="UTF-8"?>
<ndm xmlns:xsi="http://www.w3.org/2001/XMLSchema-instance" xsi:noNamespaceSchemaLocation="https://sanaregistry.org/r/ndmxml_unqualified/ndmxml-2.0.0-master-2.0.xsd">
<omm id="CCSDS_OMM_VERS" version="2.0">
<header><CREATION_DATE/><ORIGINATOR/></header><body><segment><metadata><OBJECT_NAME>KUIPER-00251</OBJECT_NAME><OBJECT_ID>2025-301Z</OBJECT_ID><CENTER_NAME>EARTH</CENTER_NAME><REF_FRAME>TEME</REF_FRAME><TIME_SYSTEM>UTC</TIME_SYSTEM><MEAN_ELEMENT_THEORY>SGP4</MEAN_ELEMENT_THEORY></metadata><data><meanElements><EPOCH>2026-01-05T11:16:36.696288</EPOCH><MEAN_MOTION>15.35050753</MEAN_MOTION><ECCENTRICITY>.0009009</ECCENTRICITY><INCLINATION>51.8678</INCLINATION><RA_OF_ASC_NODE>10.7876</RA_OF_ASC_NODE><ARG_OF_PERICENTER>166.2506</ARG_OF_PERICENTER><MEAN_ANOMALY>193.8727</MEAN_ANOMALY></meanElements><tleParameters><EPHEMERIS_TYPE>0</EPHEMERIS_TYPE><CLASSIFICATION_TYPE>U</CLASSIFICATION_TYPE><NORAD_CAT_ID>67156</NORAD_CAT_ID><ELEMENT_SET_NO>999</ELEMENT_SET_NO><REV_AT_EPOCH>420</REV_AT_EPOCH><BSTAR>.80432E-3</BSTAR><MEAN_MOTION_DOT>.27522E-3</MEAN_MOTION_DOT><MEAN_MOTION_DDOT>0</MEAN_MOTION_DDOT></tleParameters></data></segment></body></omm>
<omm id="CCSDS_OMM_VERS" version="2.0">
<header><CREATION_DATE/><ORIGINATOR/></header><body><segment><metadata><OBJECT_NAME>KUIPER-00252</OBJECT_NAME><OBJECT_ID>2025-301AA</OBJECT_ID><CENTER_NAME>EARTH</CENTER_NAME><REF_FRAME>TEME</REF_FRAME><TIME_SYSTEM>UTC</TIME_SYSTEM><MEAN_ELEMENT_THEORY>SGP4</MEAN_ELEMENT_THEORY></metadata><data><meanElements><EPOCH>2026-01-05T11:25:52.416768</EPOCH><MEAN_MOTION>15.34719933</MEAN_MOTION><ECCENTRICITY>.0009888</ECCENTRICITY><INCLINATION>51.8669</INCLINATION><RA_OF_ASC_NODE>10.8281</RA_OF_ASC_NODE><ARG_OF_PERICENTER>178.6131</ARG_OF_PERICENTER><MEAN_ANOMALY>181.4884</MEAN_ANOMALY></meanElements><tleParameters><EPHEMERIS_TYPE>0</EPHEMERIS_TYPE><CLASSIFICATION_TYPE>U</CLASSIFICATION_TYPE><NORAD_CAT_ID>67157</NORAD_CAT_ID><ELEMENT_SET_NO>999</ELEMENT_SET_NO><REV_AT_EPOCH>401</REV_AT_EPOCH><BSTAR>.79091E-3</BSTAR><MEAN_MOTION_DOT>.26774E-3</MEAN_MOTION_DOT><MEAN_MOTION_DDOT>0</MEAN_MOTION_DDOT></tleParameters></data></segment></body></omm>
<omm id="CCSDS_OMM_VERS" version="2.0">
<header><CREATION_DATE/><ORIGINATOR/></header><body><segment><metadata><OBJECT_NAME>KUIPER-00261</OBJECT_NAME><OBJECT_ID>2025-301AB</OBJECT_ID><CENTER_NAME>EARTH</CENTER_NAME><REF_FRAME>TEME</REF_FRAME><TIME_SYSTEM>UTC</TIME_SYSTEM><MEAN_ELEMENT_THEORY>SGP4</MEAN_ELEMENT_THEORY></metadata><data><meanElements><EPOCH>2026-01-05T12:37:16.692960</EPOCH><MEAN_MOTION>15.35904184</MEAN_MOTION><ECCENTRICITY>.0006492</ECCENTRICITY><INCLINATION>51.8706</INCLINATION><RA_OF_ASC_NODE>10.4176</RA_OF_ASC_NODE><ARG_OF_PERICENTER>151.8938</ARG_OF_PERICENTER><MEAN_ANOMALY>208.2400</MEAN_ANOMALY></meanElements><tleParameters><EPHEMERIS_TYPE>0</EPHEMERIS_TYPE><CLASSIFICATION_TYPE>U</CLASSIFICATION_TYPE><NORAD_CAT_ID>67158</NORAD_CAT_ID><ELEMENT_SET_NO>999</ELEMENT_SET_NO><REV_AT_EPOCH>402</REV_AT_EPOCH><BSTAR>.93643E-3</BSTAR><MEAN_MOTION_DOT>.33007E-3</MEAN_MOTION_DOT><MEAN_MOTION_DDOT>0</MEAN_MOTION_DDOT></tleParameters></data></segment></body></omm>
<omm id="CCSDS_OMM_VERS" version="2.0">
<header><CREATION_DATE/><ORIGINATOR/></header><body><segment><metadata><OBJECT_NAME>KUIPER-00265</OBJECT_NAME><OBJECT_ID>2025-301AC</OBJECT_ID><CENTER_NAME>EARTH</CENTER_NAME><REF_FRAME>TEME</REF_FRAME><TIME_SYSTEM>UTC</TIME_SYSTEM><MEAN_ELEMENT_THEORY>SGP4</MEAN_ELEMENT_THEORY></metadata><data><meanElements><EPOCH>2026-01-05T12:00:01.999296</EPOCH><MEAN_MOTION>15.33268313</MEAN_MOTION><ECCENTRICITY>.000152</ECCENTRICITY><INCLINATION>51.8759</INCLINATION><RA_OF_ASC_NODE>10.4397</RA_OF_ASC_NODE><ARG_OF_PERICENTER>81.4109</ARG_OF_PERICENTER><MEAN_ANOMALY>191.7558</MEAN_ANOMALY></meanElements><tleParameters><EPHEMERIS_TYPE>0</EPHEMERIS_TYPE><CLASSIFICATION_TYPE>U</CLASSIFICATION_TYPE><NORAD_CAT_ID>67159</NORAD_CAT_ID><ELEMENT_SET_NO>999</ELEMENT_SET_NO><REV_AT_EPOCH>404</REV_AT_EPOCH><BSTAR>-.39048E-1</BSTAR><MEAN_MOTION_DOT>-.1160145E-1</MEAN_MOTION_DOT><MEAN_MOTION_DDOT>0</MEAN_MOTION_DDOT></tleParameters></data></segment></body></omm>
</ndm>
